ONEWEB-0560             
1 55145U 23004F   25008.69323649  .00000032  00000+0  47587-4 0  9995
2 55145  87.9098  79.8355 0001800 114.4306 245.7014 13.18687367100585
ONEWEB-0565             
1 55146U 23004G   25008.68691214  .00000046  00000+0  84462-4 0  9999
2 55146  87.9091  79.9049 0002366 111.2142 248.9243 13.18687076100576
ONEWEB-0567             
1 55147U 23004H   25008.90819427  .00001510  00000+0  37955-2 0  9993
2 55147  87.9095  79.8153 0002159 115.0904 245.0452 13.18701924100607
ONEWEB-0569             
1 55148U 23004J   25008.90532290  .00000318  00000+0  83506-3 0  9993
2 55148  87.8905  64.4627 0002176 129.2389 230.8933 13.13470924101353
ONEWEB-0570             
1 55149U 23004K   25008.89557680  .00000102  00000+0  22474-3 0  9990
2 55149  87.9095  79.8190 0002520  97.0431 263.0988 13.18688340100594
ONEWEB-0571             
1 55150U 23004L   25008.88927277  .00000103  00000+0  22906-3 0  9995
2 55150  87.9096  79.8281 0002756 120.5424 239.5981 13.18687644100602
ONEWEB-0572             
1 55151U 23004M   25008.80039509  .00000062  00000+0  12710-3 0  9996
2 55151  87.9103 110.3414 0001944 106.6609 253.4736 13.17652145 98425
ONEWEB-0573             
1 55152U 23004N   25008.88292604  .00000080  00000+0  17018-3 0  9998
2 55152  87.9091  79.8405 0002745 110.5974 249.5453 13.18688462100596
